JY1SAT (JO-97)          
1 43803U 18099AX  26068.68634132  .00017774  00000+0  60804-3 0  9996
2 43803  97.4249 131.3625 0004723 256.6795 103.3919 15.30302628398390
STARLINK-33886          
1 63681U 25085T   26068.28390845  .00020309  00000+0  74587-3 0  9992
2 63681  43.0039  32.7072 0001395 276.5494  83.5198 15.27564387 48814
